[
    {
        "Altitude(m)": 565429.5030589584,
        "Argument of Periapsis(deg)": 0.0,
        "Eccentricity": 0.0,
        "Inclination(deg)": 53.0,
        "Latitude(deg)": -37.330313051011444,
        "Longitude(deg)": 49.88879095228395,
        "Mean Anomaly(deg)": -130.9091,
        "RAAN(deg)": 295.00000000000006,
        "Satellite Name": "Starlink Shell 1 1312",
        "Satellite Number": 1312,
        "Semi-Major Axis(m)": 6931778.249405717,
        "Time(s)": 0
    },
    {
        "Altitude(m)": 565597.4344221402,
        "Argument of Periapsis(deg)": 0.00034857847951123687,
        "Eccentricity": 0.0,
        "Inclination(deg)": 53.0,
        "Latitude(deg)": -37.7398367740521,
        "Longitude(deg)": 50.44348475821735,
        "Mean Anomaly(deg)": -130.28226879644333,
        "RAAN(deg)": 294.99948122992254,
        "Satellite Name": "Starlink Shell 1 1312",
        "Satellite Number": 1312,
        "Semi-Major Axis(m)": 6931778.249405717,
        "Time(s)": 10
    },
    {
        "Altitude(m)": 565764.3465274984,
        "Argument of Periapsis(deg)": 0.0006971569590224737,
        "Eccentricity": 0.0,
        "Inclination(deg)": 53.0,
        "Latitude(deg)": -38.14627566035489,
        "Longitude(deg)": 51.00473506955719,
        "Mean Anomaly(deg)": -129.6554375928865,
        "RAAN(deg)": 294.9989624598451,
        "Satellite Name": "Starlink Shell 1 1312",
        "Satellite Number": 1312,
        "Semi-Major Axis(m)": 6931778.249405717,
        "Time(s)": 20
    },
    {
        "Altitude(m)": 565930.1747685461,
        "Argument of Periapsis(deg)": 0.0010457354385337105,
        "Eccentricity": 0.0,
        "Inclination(deg)": 53.0,
        "Latitude(deg)": -38.54955164510618,
        "Longitude(deg)": 51.572660896815,
        "Mean Anomaly(deg)": -129.0286063893298,
        "RAAN(deg)": 294.9984436897676,
        "Satellite Name": "Starlink Shell 1 1312",
        "Satellite Number": 1312,
        "Semi-Major Axis(m)": 6931778.249405717,
        "Time(s)": 30
    },
    {
        "Altitude(m)": 566094.8548764446,
        "Argument of Periapsis(deg)": 0.0013943139180449475,
        "Eccentricity": 0.0,
        "Inclination(deg)": 53.0,
        "Latitude(deg)": -38.94958493833091,
        "Longitude(deg)": 52.14738157270499,
        "Mean Anomaly(deg)": -128.40177518577315,
        "RAAN(deg)": 294.99792491969015,
        "Satellite Name": "Starlink Shell 1 1312",
        "Satellite Number": 1312,
        "Semi-Major Axis(m)": 6931778.249405717,
        "Time(s)": 40
    },
    {
        "Altitude(m)": 566258.3229485578,
        "Argument of Periapsis(deg)": 0.0017428923975561844,
        "Eccentricity": 0.0,
        "Inclination(deg)": 53.0,
        "Latitude(deg)": -39.34629400263905,
        "Longitude(deg)": 52.7290155689655,
        "Mean Anomaly(deg)": -127.77494398221641,
        "RAAN(deg)": 294.9974061496127,
        "Satellite Name": "Starlink Shell 1 1312",
        "Satellite Number": 1312,
        "Semi-Major Axis(m)": 6931778.249405717,
        "Time(s)": 50
    },
    {
        "Altitude(m)": 566420.5154768607,
        "Argument of Periapsis(deg)": 0.002091470877067421,
        "Eccentricity": 0.0,
        "Inclination(deg)": 53.0,
        "Latitude(deg)": -39.73959553295748,
        "Longitude(deg)": 53.3176808122978,
        "Mean Anomaly(deg)": -127.14811277865965,
        "RAAN(deg)": 294.99688737953517,
        "Satellite Name": "Starlink Shell 1 1312",
        "Satellite Number": 1312,
        "Semi-Major Axis(m)": 6931778.249405717,
        "Time(s)": 60
    },
    {
        "Altitude(m)": 566581.3693761363,
        "Argument of Periapsis(deg)": 0.0024400493565786582,
        "Eccentricity": 0.0,
        "Inclination(deg)": 53.0,
        "Latitude(deg)": -40.12940443848749,
        "Longitude(deg)": 53.913494985959765,
        "Mean Anomaly(deg)": -126.52128157510298,
        "RAAN(deg)": 294.9963686094577,
        "Satellite Name": "Starlink Shell 1 1312",
        "Satellite Number": 1312,
        "Semi-Major Axis(m)": 6931778.249405717,
        "Time(s)": 70
    },
    {
        "Altitude(m)": 566740.8220119644,
        "Argument of Periapsis(deg)": 0.002788627836089895,
        "Eccentricity": 0.0,
        "Inclination(deg)": 53.0,
        "Latitude(deg)": -40.51563382714509,
        "Longitude(deg)": 54.51657430356408,
        "Mean Anomaly(deg)": -125.89445037154623,
        "RAAN(deg)": 294.99584983938024,
        "Satellite Name": "Starlink Shell 1 1312",
        "Satellite Number": 1312,
        "Semi-Major Axis(m)": 6931778.249405717,
        "Time(s)": 80
    },
    {
        "Altitude(m)": 566898.8112284807,
        "Argument of Periapsis(deg)": 0.0031372063156011316,
        "Eccentricity": 0.0,
        "Inclination(deg)": 53.0,
        "Latitude(deg)": -40.898194992751044,
        "Longitude(deg)": 55.127033780264846,
        "Mean Anomaly(deg)": -125.26761916798947,
        "RAAN(deg)": 294.9953310693028,
        "Satellite Name": "Starlink Shell 1 1312",
        "Satellite Number": 1312,
        "Semi-Major Axis(m)": 6931778.249405717,
        "Time(s)": 90
    },
    {
        "Altitude(m)": 567055.2753759471,
        "Argument of Periapsis(deg)": 0.0034857847951123688,
        "Eccentricity": 0.0,
        "Inclination(deg)": 53.0,
        "Latitude(deg)": -41.27699740525773,
        "Longitude(deg)": 55.744987487930096,
        "Mean Anomaly(deg)": -124.6407879644328,
        "RAAN(deg)": 294.99481229922526,
        "Satellite Name": "Starlink Shell 1 1312",
        "Satellite Number": 1312,
        "Semi-Major Axis(m)": 6931778.249405717,
        "Time(s)": 100
    },
    {
        "Altitude(m)": 567210.1533380509,
        "Argument of Periapsis(deg)": 0.003834363274623606,
        "Eccentricity": 0.0,
        "Inclination(deg)": 53.0,
        "Latitude(deg)": -41.65194870431758,
        "Longitude(deg)": 56.37054728092617,
        "Mean Anomaly(deg)": -124.01395676087617,
        "RAAN(deg)": 294.99429352914785,
        "Satellite Name": "Starlink Shell 1 1312",
        "Satellite Number": 1312,
        "Semi-Major Axis(m)": 6931778.249405717,
        "Time(s)": 110
    },
    {
        "Altitude(m)": 567363.3845589305,
        "Argument of Periapsis(deg)": 0.004182941754134842,
        "Eccentricity": 0.0,
        "Inclination(deg)": 53.0,
        "Latitude(deg)": -42.02295469650544,
        "Longitude(deg)": 57.003823017800194,
        "Mean Anomaly(deg)": -123.38712555731941,
        "RAAN(deg)": 294.9937747590704,
        "Satellite Name": "Starlink Shell 1 1312",
        "Satellite Number": 1312,
        "Semi-Major Axis(m)": 6931778.249405717,
        "Time(s)": 120
    },
    {
        "Altitude(m)": 567514.9090699938,
        "Argument of Periapsis(deg)": 0.004531520233646079,
        "Eccentricity": 0.0,
        "Inclination(deg)": 53.0,
        "Latitude(deg)": -42.389919356528964,
        "Longitude(deg)": 57.64492276558182,
        "Mean Anomaly(deg)": -122.76029435376272,
        "RAAN(deg)": 294.99325598899287,
        "Satellite Name": "Starlink Shell 1 1312",
        "Satellite Number": 1312,
        "Semi-Major Axis(m)": 6931778.249405717,
        "Time(s)": 130
    },
    {
        "Altitude(m)": 567664.6675164048,
        "Argument of Periapsis(deg)": 0.0048800987131573164,
        "Eccentricity": 0.0,
        "Inclination(deg)": 53.0,
        "Latitude(deg)": -42.752744832777516,
        "Longitude(deg)": 58.2939514734883,
        "Mean Anomaly(deg)": -122.13346315020598,
        "RAAN(deg)": 294.9927372189154,
        "Satellite Name": "Starlink Shell 1 1312",
        "Satellite Number": 1312,
        "Semi-Major Axis(m)": 6931778.249405717,
        "Time(s)": 140
    },
    {
        "Altitude(m)": 567812.6011833111,
        "Argument of Periapsis(deg)": 0.005228677192668553,
        "Eccentricity": 0.0,
        "Inclination(deg)": 53.0,
        "Latitude(deg)": -43.11133145756423,
        "Longitude(deg)": 58.95101114150039,
        "Mean Anomaly(deg)": -121.50663194664932,
        "RAAN(deg)": 294.9922184488379,
        "Satellite Name": "Starlink Shell 1 1312",
        "Satellite Number": 1312,
        "Semi-Major Axis(m)": 6931778.249405717,
        "Time(s)": 150
    },
    {
        "Altitude(m)": 567958.652021762,
        "Argument of Periapsis(deg)": 0.00557725567217979,
        "Eccentricity": 0.0,
        "Inclination(deg)": 53.0,
        "Latitude(deg)": -43.46557776243988,
        "Longitude(deg)": 59.616200970751066,
        "Mean Anomaly(deg)": -120.87980074309255,
        "RAAN(deg)": 294.9916996787605,
        "Satellite Name": "Starlink Shell 1 1312",
        "Satellite Number": 1312,
        "Semi-Major Axis(m)": 6931778.249405717,
        "Time(s)": 160
    },
    {
        "Altitude(m)": 568102.7626743178,
        "Argument of Periapsis(deg)": 0.0059258341516910265,
        "Eccentricity": 0.0,
        "Inclination(deg)": 53.0,
        "Latitude(deg)": -43.81538049896391,
        "Longitude(deg)": 60.28961598276095,
        "Mean Anomaly(deg)": -120.25296953953583,
        "RAAN(deg)": 294.991180908683,
        "Satellite Name": "Starlink Shell 1 1312",
        "Satellite Number": 1312,
        "Semi-Major Axis(m)": 6931778.249405717,
        "Time(s)": 170
    },
    {
        "Altitude(m)": 568244.8765003381,
        "Argument of Periapsis(deg)": 0.006274412631202263,
        "Eccentricity": 0.0,
        "Inclination(deg)": 53.0,
        "Latitude(deg)": -44.16063466532722,
        "Longitude(deg)": 60.971347133282876,
        "Mean Anomaly(deg)": -119.62613833597914,
        "RAAN(deg)": 294.9906621386055,
        "Satellite Name": "Starlink Shell 1 1312",
        "Satellite Number": 1312,
        "Semi-Major Axis(m)": 6931778.249405717,
        "Time(s)": 180
    }
]